OBJECT_NAME,OBJECT_ID,EPOCH,MEAN_MOTION,ECCENTRICITY,INCLINATION,RA_OF_ASC_NODE,ARG_OF_PERICENTER,MEAN_ANOMALY,EPHEMERIS_TYPE,CLASSIFICATION_TYPE,NORAD_CAT_ID,ELEMENT_SET_NO,REV_AT_EPOCH,BSTAR,MEAN_MOTION_DOT,MEAN_MOTION_DDOT
JAM-E JAM 1,2026-028B,2026-06-19T14:44:55.564800,1.00277035,.00011012,0.2541,303.2318,292.6751,287.1607,0,U,67757,999,114,0,.15E-5,0
ECHOSTAR 25,2026-045A,2026-06-20T03:14:33.172224,1.00270586,.00019425,0.0191,32.9364,58.2837,115.7547,0,U,68126,999,102,0,-.61E-6,0
